     2.100          NAVIGATION                              RINEX VERSION / TYPE
fic2rin                                 08/21/2008 01:21:38 PGM / RUN BY / DATE
                                                            END OF HEADER
29 08  8 20  4  0  0.0 -.395160168409D-04  .795807864051D-12  .000000000000D+00
     .185000000000D+03 -.144062500000D+02  .435911014586D-08  .234816569002D+01
    -.812113285065D-06  .359534448944D-02  .124406069517D-04  .515361941719D+04
     .273600000000D+06  .447034835815D-07 -.269223874698D+01  .353902578354D-07
     .960128621874D+00  .143875000000D+03 -.138233219235D+01 -.778318134360D-08
     .267868300647D-10  .100000000000D+01  .149300000000D+04  .000000000000D+00
     .340000000000D+01  .000000000000D+00 -.884756445885D-08  .185000000000D+03
     .266406000000D+06  .400000000000D+01
30 08  8 20  4  0  0.0  .921180471778D-04  .204636307899D-11  .000000000000D+00
     .770000000000D+02 -.557500000000D+02  .508485466175D-08  .584326263009D+00
    -.306591391563D-05  .109922522679D-01  .472366809845D-05  .515369471931D+04
     .273600000000D+06 -.119209289551D-06  .248221766761D+01 -.502914190292D-07
     .949522683774D+00  .283843750000D+03  .139076898867D+01 -.869071914619D-08
    -.271439877989D-09  .100000000000D+01  .149300000000D+04  .000000000000D+00
     .340000000000D+01  .000000000000D+00 -.838190317154D-08  .770000000000D+02
     .266406000000D+06  .400000000000D+01
31 08  8 20  4  0  0.0 -.250809825957D-04  .000000000000D+00  .000000000000D+00
     .770000000000D+02  .635937500000D+02  .437375361297D-08  .298312082380D+01
     .346451997757D-05  .663847476244D-02  .629387795925D-05  .515379887962D+04
     .273600000000D+06  .000000000000D+00  .147162250913D+01  .204890966415D-07
     .968682982677D+00  .263625000000D+03 -.122027031771D+01 -.798176104381D-08
     .385016037463D-09  .100000000000D+01  .149300000000D+04  .000000000000D+00
     .240000000000D+01  .000000000000D+00 -.130385160446D-07  .770000000000D+02
     .266406000000D+06  .400000000000D+01
 2 08  8 20  3 59 44.0  .193614047021D-03 -.272848410532D-11  .000000000000D+00
     .900000000000D+01  .849062500000D+02  .530879256109D-08 -.126816228672D+01
     .439211726189D-05  .875714072026D-02  .681169331074D-05  .515376536179D+04
     .273584000000D+06  .372529029846D-08 -.167653697891D+01 -.182539224625D-06
     .942528650913D+00  .239750000000D+03  .262851848419D+01 -.863464538192D-08
     .534307970357D-09  .100000000000D+01  .149300000000D+04  .000000000000D+00
     .240000000000D+01  .000000000000D+00 -.172294676304D-07  .900000000000D+01
     .266796000000D+06  .400000000000D+01
18 08  8 20  3 59 44.0 -.143087934703D-03  .420641299570D-11  .000000000000D+00
     .200000000000D+02 -.463750000000D+02  .530272087961D-08  .103567636229D+01
    -.228732824326D-05  .979138805997D-02  .460445880890D-05  .515370819283D+04
     .273584000000D+06  .745058059692D-08 -.584044829754D+00  .115483999252D-06
     .946496579210D+00  .285343750000D+03 -.247863431999D+01 -.873643533617D-08
    -.530379235281D-09  .100000000000D+01  .149300000000D+04  .000000000000D+00
     .240000000000D+01  .000000000000D+00 -.107102096081D-07  .200000000000D+02
     .268296000000D+06  .400000000000D+01
25 08  8 20  3 59 44.0 -.234842300415D-03 -.276259015664D-10  .000000000000D+00
     .480000000000D+02  .653750000000D+02  .448911556111D-08  .138536449968D+01
     .321120023727D-05  .115883268882D-01  .731274485588D-05  .515369277382D+04
     .273584000000D+06  .188127160072D-06  .137998126836D+01 -.238418579102D-06
     .965683216491D+00  .238531250000D+03 -.124786203378D+01 -.816605443466D-08
     .505735351622D-09  .100000000000D+01  .149300000000D+04  .000000000000D+00
     .240000000000D+01  .000000000000D+00 -.745058059692D-08  .480000000000D+02
     .268506000000D+06  .400000000000D+01
13 08  8 20  3 59 44.0  .268249772489D-03  .136424205266D-11  .000000000000D+00
     .200000000000D+02 -.978125000000D+01  .344978655460D-08 -.726047015161D+00
    -.583007931709D-06  .375394034199D-02  .129602849483D-04  .515359725380D+04
     .273584000000D+06 -.223517417908D-07  .477135189064D+00  .391155481339D-07
     .995732437441D+00  .146843750000D+03  .153712443645D+01 -.756781522988D-08
    -.140005831805D-09  .100000000000D+01  .149300000000D+04  .000000000000D+00
     .240000000000D+01  .000000000000D+00 -.111758708954D-07  .200000000000D+02
     .269706000000D+06  .400000000000D+01
22 08  8 20  3 59 44.0  .211303122342D-03 -.113686837722D-12  .000000000000D+00
     .900000000000D+01 -.486875000000D+02  .533986528397D-08 -.201823138081D+00
    -.249221920967D-05  .507607217878D-02  .450201332569D-05  .515366498566D+04
     .273584000000D+06 -.111758708954D-07 -.577737130762D+00 -.838190317154D-07
     .944145413846D+00  .281937500000D+03 -.183432882243D+01 -.875536469608D-08
    -.476091259683D-09  .100000000000D+01  .149300000000D+04  .000000000000D+00
     .240000000000D+01  .000000000000D+00 -.181607902050D-07  .900000000000D+01
     .271206000000D+06  .400000000000D+01
 3 08  8 20  3 59 44.0  .272077973932D-03  .522959453519D-11  .000000000000D+00
     .810000000000D+02 -.150312500000D+02  .510699844127D-08 -.161075545429D+01
    -.933185219765D-06  .110088622896D-01  .113938003778D-04  .515369734955D+04
     .273584000000D+06  .245869159698D-06 -.282117093261D+01 -.633299350739D-07
     .926413775869D+00  .135437500000D+03  .837290852022D+00 -.814069623553D-08
    -.103575742917D-10  .100000000000D+01  .149300000000D+04  .000000000000D+00
     .240000000000D+01  .000000000000D+00 -.419095158577D-08  .810000000000D+02
     .272946000000D+06  .400000000000D+01
 2 08  8 20  5 59 44.0  .193594023585D-03 -.272848410532D-11  .000000000000D+00
     .100000000000D+02  .905937500000D+02  .533057918288D-08 -.218085605467D+00
     .472180545330D-05  .875637866557D-02  .654160976410D-05  .515376368141D+04
     .280784000000D+06  .782310962677D-07 -.167659913244D+01 -.124797224998D-06
     .942532534960D+00  .243437500000D+03  .262857264726D+01 -.866536094707D-08
     .527521973408D-09  .100000000000D+01  .149300000000D+04  .000000000000D+00
     .240000000000D+01  .000000000000D+00 -.172294676304D-07  .100000000000D+02
     .273606000000D+06  .400000000000D+01
 3 08  8 20  5 59 44.0  .272115692496D-03  .522959453519D-11  .000000000000D+00
     .940000000000D+02 -.230312500000D+02  .511628454236D-08 -.560418285843D+00
    -.105239450932D-05  .110097527504D-01  .111740082502D-04  .515370123100D+04
     .280784000000D+06  .316649675369D-07 -.282123012520D+01  .180676579475D-06
     .926412040849D+00  .147812500000D+03  .837122755420D+00 -.846535261592D-08
    -.828605943335D-10  .100000000000D+01  .149300000000D+04  .000000000000D+00
     .240000000000D+01  .000000000000D+00 -.419095158577D-08  .940000000000D+02
     .273606000000D+06  .400000000000D+01
13 08  8 20  5 59 44.0  .268259551376D-03  .136424205266D-11  .000000000000D+00
     .210000000000D+02 -.113750000000D+02  .352800409839D-08  .324163593321D+00
    -.655651092529D-06  .375177804381D-02  .122170895338D-04  .515359321594D+04
     .280784000000D+06 -.447034835815D-07  .477080870916D+00  .111758708954D-07
     .995731350493D+00  .162968750000D+03  .153713467542D+01 -.756031491746D-08
    -.167506977338D-09  .100000000000D+01  .149300000000D+04  .000000000000D+00
     .240000000000D+01  .000000000000D+00 -.111758708954D-07  .210000000000D+02
     .273606000000D+06  .400000000000D+01
18 08  8 20  5 59 44.0 -.143058132380D-03  .420641299570D-11  .000000000000D+00
     .210000000000D+02 -.487500000000D+02  .523486091011D-08  .208581741634D+01
    -.259652733803D-05  .979116198141D-02  .452063977718D-05  .515370864296D+04
     .280784000000D+06 -.214204192162D-06 -.584108299918D+00 -.540167093277D-07
     .946493967901D+00  .288312500000D+03 -.247860926460D+01 -.854964184119D-08
    -.358229207399D-09  .100000000000D+01  .149300000000D+04  .000000000000D+00
     .240000000000D+01  .000000000000D+00 -.107102096081D-07  .210000000000D+02
     .273606000000D+06  .400000000000D+01
22 08  8 20  5 59 44.0  .211302191019D-03 -.113686837722D-12  .000000000000D+00
     .100000000000D+02 -.457187500000D+02  .541629703908D-08  .848458429242D+00
    -.235438346863D-05  .507517636288D-02  .436976552010D-05  .515366310120D+04
     .280784000000D+06 -.372529029846D-07 -.577800848159D+00  .651925802231D-07
     .944142483621D+00  .288687500000D+03 -.183441715196D+01 -.874643575273D-08
    -.346085844436D-09  .100000000000D+01  .149300000000D+04  .000000000000D+00
     .240000000000D+01  .000000000000D+00 -.181607902050D-07  .100000000000D+02
     .273606000000D+06  .400000000000D+01
25 08  8 20  5 59 44.0 -.235041603446D-03 -.276259015664D-10  .000000000000D+00
     .490000000000D+02  .686250000000D+02  .435982446133D-08  .243548642168D+01
     .357627868652D-05  .115882848622D-01  .713765621185D-05  .515369374084D+04
     .280784000000D+06  .894069671631D-07  .137992487287D+01  .113621354103D-06
     .965687312661D+00  .241343750000D+03 -.124781666430D+01 -.787889961637D-08
     .338942689752D-09  .100000000000D+01  .149300000000D+04  .000000000000D+00
     .240000000000D+01  .000000000000D+00 -.745058059692D-08  .490000000000D+02
     .273606000000D+06  .400000000000D+01
 4 08  8 20  6  0  0.0 -.147517770529D-03 -.105728759081D-10  .000000000000D+00
     .860000000000D+02  .957187500000D+02  .528736309704D-08  .255882457389D+01
     .498443841934D-05  .820807344280D-02  .653043389320D-05  .515357114983D+04
     .280800000000D+06 -.128522515297D-06 -.165784331430D+01 -.931322574615D-07
     .941810974025D+00  .244093750000D+03  .388982849920D+00 -.844570894053D-08
     .527879131142D-09  .100000000000D+01  .149300000000D+04  .000000000000D+00
     .240000000000D+01  .000000000000D+00 -.605359673500D-08  .860000000000D+02
     .273606000000D+06  .400000000000D+01
